CCSDS_OMM_VERS = 2.0
CREATION_DATE  = 
ORIGINATOR     = 

OBJECT_NAME    = SL-14 R/B
OBJECT_ID      = 1991-042B
CENTER_NAME    = EARTH
REF_FRAME      = TEME
TIME_SYSTEM    = UTC
MEAN_ELEMENT_THEORY = SGP/SGP4

EPOCH          = 2026-02-11T00:24:54.718272
MEAN_MOTION    = 14.81803359
ECCENTRICITY   = .00163935
INCLINATION    = 82.4898
RA_OF_ASC_NODE = 245.1994
ARG_OF_PERICENTER = 333.5427
MEAN_ANOMALY   = 26.4948

EPHEMERIS_TYPE = 0
CLASSIFICATION_TYPE = U
NORAD_CAT_ID   = 21423
ELEMENT_SET_NO = 999
REV_AT_EPOCH   = 84912
BSTAR          = .49823649E-4
MEAN_MOTION_DOT = .417E-5
MEAN_MOTION_DDOT = 0

CCSDS_OMM_VERS = 2.0
CREATION_DATE  = 
ORIGINATOR     = 

OBJECT_NAME    = ERS-1
OBJECT_ID      = 1991-050A
CENTER_NAME    = EARTH
REF_FRAME      = TEME
TIME_SYSTEM    = UTC
MEAN_ELEMENT_THEORY = SGP/SGP4

EPOCH          = 2026-02-11T01:47:11.959008
MEAN_MOTION    = 14.39427474
ECCENTRICITY   = .00309116
INCLINATION    = 98.7895
RA_OF_ASC_NODE = 59.6397
ARG_OF_PERICENTER = 281.6553
MEAN_ANOMALY   = 78.1165

EPHEMERIS_TYPE = 0
CLASSIFICATION_TYPE = U
NORAD_CAT_ID   = 21574
ELEMENT_SET_NO = 999
REV_AT_EPOCH   = 81190
BSTAR          = .13694843E-3
MEAN_MOTION_DOT = .382E-5
MEAN_MOTION_DDOT = 0

CCSDS_OMM_VERS = 2.0
CREATION_DATE  = 
ORIGINATOR     = 

OBJECT_NAME    = ARIANE 40 R/B
OBJECT_ID      = 1991-050F
CENTER_NAME    = EARTH
REF_FRAME      = TEME
TIME_SYSTEM    = UTC
MEAN_ELEMENT_THEORY = SGP/SGP4

EPOCH          = 2026-02-10T15:12:49.493088
MEAN_MOTION    = 14.42873345
ECCENTRICITY   = .00038814
INCLINATION    = 98.2072
RA_OF_ASC_NODE = 94.8781
ARG_OF_PERICENTER = 140.8090
MEAN_ANOMALY   = 219.3382

EPHEMERIS_TYPE = 0
CLASSIFICATION_TYPE = U
NORAD_CAT_ID   = 21610
ELEMENT_SET_NO = 999
REV_AT_EPOCH   = 81509
BSTAR          = .11030306E-3
MEAN_MOTION_DOT = .327E-5
MEAN_MOTION_DDOT = 0

CCSDS_OMM_VERS = 2.0
CREATION_DATE  = 
ORIGINATOR     = 

OBJECT_NAME    = INTERCOSMOS 25
OBJECT_ID      = 1991-086A
CENTER_NAME    = EARTH
REF_FRAME      = TEME
TIME_SYSTEM    = UTC
MEAN_ELEMENT_THEORY = SGP/SGP4

EPOCH          = 2026-02-11T05:42:42.770592
MEAN_MOTION    = 12.11926205
ECCENTRICITY   = .14868353
INCLINATION    = 82.6086
RA_OF_ASC_NODE = 325.9924
ARG_OF_PERICENTER = 173.9171
MEAN_ANOMALY   = 188.2460

EPHEMERIS_TYPE = 0
CLASSIFICATION_TYPE = U
NORAD_CAT_ID   = 21819
ELEMENT_SET_NO = 999
REV_AT_EPOCH   = 49348
BSTAR          = .31038899E-3
MEAN_MOTION_DOT = .1599E-4
MEAN_MOTION_DDOT = 0

CCSDS_OMM_VERS = 2.0
CREATION_DATE  = 
ORIGINATOR     = 

OBJECT_NAME    = SL-8 R/B
OBJECT_ID      = 1992-008B
CENTER_NAME    = EARTH
REF_FRAME      = TEME
TIME_SYSTEM    = UTC
MEAN_ELEMENT_THEORY = SGP/SGP4

EPOCH          = 2026-02-11T03:04:41.117952
MEAN_MOTION    = 13.75969666
ECCENTRICITY   = .00339356
INCLINATION    = 82.9260
RA_OF_ASC_NODE = 287.5387
ARG_OF_PERICENTER = 207.0655
MEAN_ANOMALY   = 317.3989

EPHEMERIS_TYPE = 0
CLASSIFICATION_TYPE = U
NORAD_CAT_ID   = 21876
ELEMENT_SET_NO = 999
REV_AT_EPOCH   = 70576
BSTAR          = .13795353E-4
MEAN_MOTION_DOT = .29E-6
MEAN_MOTION_DDOT = 0

CCSDS_OMM_VERS = 2.0
CREATION_DATE  = 
ORIGINATOR     = 

OBJECT_NAME    = SL-8 R/B
OBJECT_ID      = 1992-020B
CENTER_NAME    = EARTH
REF_FRAME      = TEME
TIME_SYSTEM    = UTC
MEAN_ELEMENT_THEORY = SGP/SGP4

EPOCH          = 2026-02-10T20:40:52.740192
MEAN_MOTION    = 13.75545664
ECCENTRICITY   = .00291713
INCLINATION    = 82.9333
RA_OF_ASC_NODE = 173.6742
ARG_OF_PERICENTER = 15.3314
MEAN_ANOMALY   = 96.8208

EPHEMERIS_TYPE = 0
CLASSIFICATION_TYPE = U
NORAD_CAT_ID   = 21938
ELEMENT_SET_NO = 999
REV_AT_EPOCH   = 69744
BSTAR          = .11822693E-3
MEAN_MOTION_DOT = .129E-5
MEAN_MOTION_DDOT = 0

CCSDS_OMM_VERS = 2.0
CREATION_DATE  = 
ORIGINATOR     = 

OBJECT_NAME    = USA 81
OBJECT_ID      = 1992-023A
CENTER_NAME    = EARTH
REF_FRAME      = TEME
TIME_SYSTEM    = UTC
MEAN_ELEMENT_THEORY = SGP/SGP4

EPOCH          = 2026-02-11T06:03:35.531712
MEAN_MOTION    = 14.32358373
ECCENTRICITY   = .00026813
INCLINATION    = 85.0120
RA_OF_ASC_NODE = 146.6854
ARG_OF_PERICENTER = 101.4504
MEAN_ANOMALY   = 258.6990

EPHEMERIS_TYPE = 0
CLASSIFICATION_TYPE = U
NORAD_CAT_ID   = 21949
ELEMENT_SET_NO = 999
REV_AT_EPOCH   = 9100
BSTAR          = .76784368E-4
MEAN_MOTION_DOT = .227E-5
MEAN_MOTION_DDOT = 0

CCSDS_OMM_VERS = 2.0
CREATION_DATE  = 
ORIGINATOR     = 

OBJECT_NAME    = COSMOS 2219
OBJECT_ID      = 1992-076A
CENTER_NAME    = EARTH
REF_FRAME      = TEME
TIME_SYSTEM    = UTC
MEAN_ELEMENT_THEORY = SGP/SGP4

EPOCH          = 2026-02-11T01:33:20.327904
MEAN_MOTION    = 14.14076532
ECCENTRICITY   = .00202202
INCLINATION    = 71.0580
RA_OF_ASC_NODE = 73.7299
ARG_OF_PERICENTER = 243.4460
MEAN_ANOMALY   = 116.4590

EPHEMERIS_TYPE = 0
CLASSIFICATION_TYPE = U
NORAD_CAT_ID   = 22219
ELEMENT_SET_NO = 999
REV_AT_EPOCH   = 71461
BSTAR          = .13765028E-4
MEAN_MOTION_DOT = -.21E-6
MEAN_MOTION_DDOT = 0

CCSDS_OMM_VERS = 2.0
CREATION_DATE  = 
ORIGINATOR     = 

OBJECT_NAME    = SL-16 R/B
OBJECT_ID      = 1992-076B
CENTER_NAME    = EARTH
REF_FRAME      = TEME
TIME_SYSTEM    = UTC
MEAN_ELEMENT_THEORY = SGP/SGP4

EPOCH          = 2026-02-10T22:45:31.182912
MEAN_MOTION    = 14.16856001
ECCENTRICITY   = .00113953
INCLINATION    = 70.9978
RA_OF_ASC_NODE = 244.7044
ARG_OF_PERICENTER = 144.3993
MEAN_ANOMALY   = 322.8524

EPHEMERIS_TYPE = 0
CLASSIFICATION_TYPE = U
NORAD_CAT_ID   = 22220
ELEMENT_SET_NO = 999
REV_AT_EPOCH   = 71804
BSTAR          = -.4976319E-5
MEAN_MOTION_DOT = -.58E-6
MEAN_MOTION_DDOT = 0

CCSDS_OMM_VERS = 2.0
CREATION_DATE  = 
ORIGINATOR     = 

OBJECT_NAME    = COSMOS 2221
OBJECT_ID      = 1992-080A
CENTER_NAME    = EARTH
REF_FRAME      = TEME
TIME_SYSTEM    = UTC
MEAN_ELEMENT_THEORY = SGP/SGP4

EPOCH          = 2026-02-11T02:03:44.014176
MEAN_MOTION    = 14.96095550
ECCENTRICITY   = .00128245
INCLINATION    = 82.5053
RA_OF_ASC_NODE = 304.5604
ARG_OF_PERICENTER = 284.7458
MEAN_ANOMALY   = 75.2343

EPHEMERIS_TYPE = 0
CLASSIFICATION_TYPE = U
NORAD_CAT_ID   = 22236
ELEMENT_SET_NO = 999
REV_AT_EPOCH   = 77681
BSTAR          = .18182111E-3
MEAN_MOTION_DOT = .2072E-4
MEAN_MOTION_DDOT = 0

CCSDS_OMM_VERS = 2.0
CREATION_DATE  = 
ORIGINATOR     = 

OBJECT_NAME    = SL-16 R/B
OBJECT_ID      = 1992-093B
CENTER_NAME    = EARTH
REF_FRAME      = TEME
TIME_SYSTEM    = UTC
MEAN_ELEMENT_THEORY = SGP/SGP4

EPOCH          = 2026-02-10T12:45:19.268064
MEAN_MOTION    = 14.15441096
ECCENTRICITY   = .00051919
INCLINATION    = 71.0200
RA_OF_ASC_NODE = 61.2795
ARG_OF_PERICENTER = 322.4617
MEAN_ANOMALY   = 37.6143

EPHEMERIS_TYPE = 0
CLASSIFICATION_TYPE = U
NORAD_CAT_ID   = 22285
ELEMENT_SET_NO = 999
REV_AT_EPOCH   = 70931
BSTAR          = .35975849E-4
MEAN_MOTION_DOT = .23E-6
MEAN_MOTION_DDOT = 0

CCSDS_OMM_VERS = 2.0
CREATION_DATE  = 
ORIGINATOR     = 

OBJECT_NAME    = COSMOS 2228
OBJECT_ID      = 1992-094A
CENTER_NAME    = EARTH
REF_FRAME      = TEME
TIME_SYSTEM    = UTC
MEAN_ELEMENT_THEORY = SGP/SGP4

EPOCH          = 2026-02-11T06:04:50.559744
MEAN_MOTION    = 14.97067291
ECCENTRICITY   = .0018909
INCLINATION    = 82.5155
RA_OF_ASC_NODE = 262.6261
ARG_OF_PERICENTER = 34.8033
MEAN_ANOMALY   = 325.4422

EPHEMERIS_TYPE = 0
CLASSIFICATION_TYPE = U
NORAD_CAT_ID   = 22286
ELEMENT_SET_NO = 999
REV_AT_EPOCH   = 77210
BSTAR          = .15568938E-3
MEAN_MOTION_DOT = .1826E-4
MEAN_MOTION_DDOT = 0

